ZACUBE-1 (TSHEPISOSAT)  
1 39417U 13066B   26073.86543069  .00005958  00000+0  47004-3 0  9993
2 39417  97.8157  35.7145 0043138 202.7590 157.1722 15.00383064666588
WNISAT-1                
1 39423U 13066H   26073.91591714  .00001947  00000+0  36169-3 0  9990
2 39423  97.7048 229.8434 0163918 168.4065 192.0984 14.57894746652997
TRITON-1                
1 39427U 13066M   26074.27813611  .00002431  00000+0  29762-3 0  9997
2 39427  97.8289 346.2392 0090535 179.4654 180.6672 14.81230852660182
GOMX-1                  
1 39430U 13066Q   26074.27353846  .00002366  00000+0  36139-3 0  9993
2 39430  97.6571 280.6304 0129888  19.6926 340.9229 14.69121970656127
CUBEBUG-2 (LO-74)       
1 39440U 13066AA  26074.12629041  .00006928  00000+0  65006-3 0  9994
2 39440  97.8812  22.8074 0057937 341.0084  18.8974 14.93028944662950
NEE-02 KRYSAOR          
1 39441U 13066AB  26073.76424001  .00004289  00000+0  47497-3 0  9995
2 39441  97.8816  13.7189 0067307  20.6533 339.7379 14.86202757662178
FUNCUBE-1 (AO-73)       
1 39444U 13066AE  26074.14862953  .00009801  00000+0  63026-3 0  9994
2 39444  97.8183  43.7800 0037879 160.7434 199.5236 15.08016483665483
UWE-3                   
1 39446U 13066AG  26074.14672721  .00006423  00000+0  56128-3 0  9990
2 39446  97.8595  29.6991 0047842 273.3394  86.2355 14.96248663663512
BRITE-CA1 (TORONTO)     
1 40020U 14033L   26074.26925724  .00001451  00000+0  22594-3 0  9998
2 40020  97.9576 205.0219 0078160 216.8255 142.7570 14.72482058628396
DUCHIFAT-1              
1 40021U 14033M   26074.18661167  .00063760  00000+0  11092-2 0  9999
2 40021  98.0632 121.2643 0005583  69.3235 290.8613 15.50560430641127
NANOSATC-BR1            
1 40024U 14033Q   26074.02433180  .00022486  00000+0  81558-3 0  9992
2 40024  98.0839  98.2491 0005016 135.6573 224.5067 15.28350912639587
QB50P1                  
1 40025U 14033R   26074.25224278  .00010886  00000+0  55932-3 0  9992
2 40025  98.1003  78.9114 0009017 174.9373 185.1951 15.16649317638780
QB50P2                  
1 40032U 14033Y   26074.21603612  .00009607  00000+0  53560-3 0  9993
2 40032  98.0729  65.3568 0009186 126.6504 233.5572 15.13785525638441
PERSEUS-M2              
1 40037U 14033AD  26074.24851041  .00003695  00000+0  34152-3 0  9999
2 40037  97.9857  22.9537 0010659 249.6279 110.3797 14.95186831636749
PERSEUS-M1              
1 40039U 14033AF  26074.09447883  .00002427  00000+0  22566-3 0  9997
2 40039  97.9552  16.7551 0010339 247.7094 112.3030 14.95279384636578
POLYITAN-1              
1 40042U 14033AJ  26074.29992963  .00022474  00000+0  77840-3 0  9996
2 40042  98.1045  91.8887 0009611 112.7063 247.5192 15.29829500639220
