[{"OBJECT_NAME":"ZACUBE-1 (TSHEPISOSAT)","OBJECT_ID":"2013-066B","EPOCH":"2026-03-14T20:46:13.211616","MEAN_MOTION":15.00383064,"ECCENTRICITY":0.00431385,"INCLINATION":97.8157,"RA_OF_ASC_NODE":35.7145,"ARG_OF_PERICENTER":202.759,"MEAN_ANOMALY":157.1722,"EPHEMERIS_TYPE":0,"CLASSIFICATION_TYPE":"U","NORAD_CAT_ID":39417,"ELEMENT_SET_NO":999,"REV_AT_EPOCH":66658,"BSTAR":0.00047003712,"MEAN_MOTION_DOT":5.958e-5,"MEAN_MOTION_DDOT":0},{"OBJECT_NAME":"WNISAT-1","OBJECT_ID":"2013-066H","EPOCH":"2026-03-14T21:58:55.240896","MEAN_MOTION":14.57894746,"ECCENTRICITY":0.01639189,"INCLINATION":97.7048,"RA_OF_ASC_NODE":229.8434,"ARG_OF_PERICENTER":168.4065,"MEAN_ANOMALY":192.0984,"EPHEMERIS_TYPE":0,"CLASSIFICATION_TYPE":"U","NORAD_CAT_ID":39423,"ELEMENT_SET_NO":999,"REV_AT_EPOCH":65299,"BSTAR":0.00036169266,"MEAN_MOTION_DOT":1.947e-5,"MEAN_MOTION_DDOT":0},{"OBJECT_NAME":"TRITON-1","OBJECT_ID":"2013-066M","EPOCH":"2026-03-15T06:40:30.959904","MEAN_MOTION":14.81230852,"ECCENTRICITY":0.00905357,"INCLINATION":97.8289,"RA_OF_ASC_NODE":346.2392,"ARG_OF_PERICENTER":179.4654,"MEAN_ANOMALY":180.6672,"EPHEMERIS_TYPE":0,"CLASSIFICATION_TYPE":"U","NORAD_CAT_ID":39427,"ELEMENT_SET_NO":999,"REV_AT_EPOCH":66018,"BSTAR":0.00029762006,"MEAN_MOTION_DOT":2.431e-5,"MEAN_MOTION_DDOT":0},{"OBJECT_NAME":"GOMX-1","OBJECT_ID":"2013-066Q","EPOCH":"2026-03-15T06:33:53.722944","MEAN_MOTION":14.6912197,"ECCENTRICITY":0.01298881,"INCLINATION":97.6571,"RA_OF_ASC_NODE":280.6304,"ARG_OF_PERICENTER":19.6926,"MEAN_ANOMALY":340.9229,"EPHEMERIS_TYPE":0,"CLASSIFICATION_TYPE":"U","NORAD_CAT_ID":39430,"ELEMENT_SET_NO":999,"REV_AT_EPOCH":65612,"BSTAR":0.00036138948,"MEAN_MOTION_DOT":2.366e-5,"MEAN_MOTION_DDOT":0},{"OBJECT_NAME":"CUBEBUG-2 (LO-74)","OBJECT_ID":"2013-066AA","EPOCH":"2026-03-15T03:01:51.491424","MEAN_MOTION":14.93028944,"ECCENTRICITY":0.00579374,"INCLINATION":97.8812,"RA_OF_ASC_NODE":22.8074,"ARG_OF_PERICENTER":341.0084,"MEAN_ANOMALY":18.8974,"EPHEMERIS_TYPE":0,"CLASSIFICATION_TYPE":"U","NORAD_CAT_ID":39440,"ELEMENT_SET_NO":999,"REV_AT_EPOCH":66295,"BSTAR":0.00065006022,"MEAN_MOTION_DOT":6.928e-5,"MEAN_MOTION_DDOT":0},{"OBJECT_NAME":"NEE-02 KRYSAOR","OBJECT_ID":"2013-066AB","EPOCH":"2026-03-14T18:20:30.336864","MEAN_MOTION":14.86202757,"ECCENTRICITY":0.00673071,"INCLINATION":97.8816,"RA_OF_ASC_NODE":13.7189,"ARG_OF_PERICENTER":20.6533,"MEAN_ANOMALY":339.7379,"EPHEMERIS_TYPE":0,"CLASSIFICATION_TYPE":"U","NORAD_CAT_ID":39441,"ELEMENT_SET_NO":999,"REV_AT_EPOCH":66217,"BSTAR":0.00047497366,"MEAN_MOTION_DOT":4.289e-5,"MEAN_MOTION_DDOT":0},{"OBJECT_NAME":"FUNCUBE-1 (AO-73)","OBJECT_ID":"2013-066AE","EPOCH":"2026-03-15T03:34:01.591392","MEAN_MOTION":15.08016483,"ECCENTRICITY":0.00378799,"INCLINATION":97.8183,"RA_OF_ASC_NODE":43.78,"ARG_OF_PERICENTER":160.7434,"MEAN_ANOMALY":199.5236,"EPHEMERIS_TYPE":0,"CLASSIFICATION_TYPE":"U","NORAD_CAT_ID":39444,"ELEMENT_SET_NO":999,"REV_AT_EPOCH":66548,"BSTAR":0.00063025545,"MEAN_MOTION_DOT":9.801e-5,"MEAN_MOTION_DDOT":0},{"OBJECT_NAME":"UWE-3","OBJECT_ID":"2013-066AG","EPOCH":"2026-03-15T03:31:17.230944","MEAN_MOTION":14.96248663,"ECCENTRICITY":0.00478429,"INCLINATION":97.8595,"RA_OF_ASC_NODE":29.6991,"ARG_OF_PERICENTER":273.3394,"MEAN_ANOMALY":86.2355,"EPHEMERIS_TYPE":0,"CLASSIFICATION_TYPE":"U","NORAD_CAT_ID":39446,"ELEMENT_SET_NO":999,"REV_AT_EPOCH":66351,"BSTAR":0.00056127854,"MEAN_MOTION_DOT":6.423e-5,"MEAN_MOTION_DDOT":0},{"OBJECT_NAME":"BRITE-CA1 (TORONTO)","OBJECT_ID":"2014-033L","EPOCH":"2026-03-15T06:27:43.825536","MEAN_MOTION":14.72482058,"ECCENTRICITY":0.00781603,"INCLINATION":97.9576,"RA_OF_ASC_NODE":205.0219,"ARG_OF_PERICENTER":216.8255,"MEAN_ANOMALY":142.757,"EPHEMERIS_TYPE":0,"CLASSIFICATION_TYPE":"U","NORAD_CAT_ID":40020,"ELEMENT_SET_NO":999,"REV_AT_EPOCH":62839,"BSTAR":0.00022593825,"MEAN_MOTION_DOT":1.451e-5,"MEAN_MOTION_DDOT":0},{"OBJECT_NAME":"DUCHIFAT-1","OBJECT_ID":"2014-033M","EPOCH":"2026-03-15T04:28:43.248288","MEAN_MOTION":15.5056043,"ECCENTRICITY":0.00055835,"INCLINATION":98.0632,"RA_OF_ASC_NODE":121.2643,"ARG_OF_PERICENTER":69.3235,"MEAN_ANOMALY":290.8613,"EPHEMERIS_TYPE":0,"CLASSIFICATION_TYPE":"U","NORAD_CAT_ID":40021,"ELEMENT_SET_NO":999,"REV_AT_EPOCH":64112,"BSTAR":0.0011092261,"MEAN_MOTION_DOT":0.0006376,"MEAN_MOTION_DDOT":0},{"OBJECT_NAME":"NANOSATC-BR1","OBJECT_ID":"2014-033Q","EPOCH":"2026-03-15T00:35:02.267520","MEAN_MOTION":15.28350912,"ECCENTRICITY":0.00050164,"INCLINATION":98.0839,"RA_OF_ASC_NODE":98.2491,"ARG_OF_PERICENTER":135.6573,"MEAN_ANOMALY":224.5067,"EPHEMERIS_TYPE":0,"CLASSIFICATION_TYPE":"U","NORAD_CAT_ID":40024,"ELEMENT_SET_NO":999,"REV_AT_EPOCH":63958,"BSTAR":0.00081557799,"MEAN_MOTION_DOT":0.00022486,"MEAN_MOTION_DDOT":0},{"OBJECT_NAME":"QB50P1","OBJECT_ID":"2014-033R","EPOCH":"2026-03-15T06:03:13.776192","MEAN_MOTION":15.16649317,"ECCENTRICITY":0.00090177,"INCLINATION":98.1003,"RA_OF_ASC_NODE":78.9114,"ARG_OF_PERICENTER":174.9373,"MEAN_ANOMALY":185.1951,"EPHEMERIS_TYPE":0,"CLASSIFICATION_TYPE":"U","NORAD_CAT_ID":40025,"ELEMENT_SET_NO":999,"REV_AT_EPOCH":63878,"BSTAR":0.0005593243,"MEAN_MOTION_DOT":0.00010886,"MEAN_MOTION_DDOT":0},{"OBJECT_NAME":"QB50P2","OBJECT_ID":"2014-033Y","EPOCH":"2026-03-15T05:11:05.520768","MEAN_MOTION":15.13785525,"ECCENTRICITY":0.00091867,"INCLINATION":98.0729,"RA_OF_ASC_NODE":65.3568,"ARG_OF_PERICENTER":126.6504,"MEAN_ANOMALY":233.5572,"EPHEMERIS_TYPE":0,"CLASSIFICATION_TYPE":"U","NORAD_CAT_ID":40032,"ELEMENT_SET_NO":999,"REV_AT_EPOCH":63844,"BSTAR":0.00053560479,"MEAN_MOTION_DOT":9.607e-5,"MEAN_MOTION_DDOT":0},{"OBJECT_NAME":"PERSEUS-M2","OBJECT_ID":"2014-033AD","EPOCH":"2026-03-15T05:57:51.299424","MEAN_MOTION":14.95186831,"ECCENTRICITY":0.0010659,"INCLINATION":97.9857,"RA_OF_ASC_NODE":22.9537,"ARG_OF_PERICENTER":249.6279,"MEAN_ANOMALY":110.3797,"EPHEMERIS_TYPE":0,"CLASSIFICATION_TYPE":"U","NORAD_CAT_ID":40037,"ELEMENT_SET_NO":999,"REV_AT_EPOCH":63674,"BSTAR":0.00034151924,"MEAN_MOTION_DOT":3.695e-5,"MEAN_MOTION_DDOT":0},{"OBJECT_NAME":"PERSEUS-M1","OBJECT_ID":"2014-033AF","EPOCH":"2026-03-15T02:16:02.970912","MEAN_MOTION":14.95279384,"ECCENTRICITY":0.00103394,"INCLINATION":97.9552,"RA_OF_ASC_NODE":16.7551,"ARG_OF_PERICENTER":247.7094,"MEAN_ANOMALY":112.303,"EPHEMERIS_TYPE":0,"CLASSIFICATION_TYPE":"U","NORAD_CAT_ID":40039,"ELEMENT_SET_NO":999,"REV_AT_EPOCH":63657,"BSTAR":0.00022565816,"MEAN_MOTION_DOT":2.427e-5,"MEAN_MOTION_DDOT":0},{"OBJECT_NAME":"POLYITAN-1","OBJECT_ID":"2014-033AJ","EPOCH":"2026-03-15T07:11:53.920032","MEAN_MOTION":15.298295,"ECCENTRICITY":0.00096113,"INCLINATION":98.1045,"RA_OF_ASC_NODE":91.8887,"ARG_OF_PERICENTER":112.7063,"MEAN_ANOMALY":247.5192,"EPHEMERIS_TYPE":0,"CLASSIFICATION_TYPE":"U","NORAD_CAT_ID":40042,"ELEMENT_SET_NO":999,"REV_AT_EPOCH":63922,"BSTAR":0.00077839938,"MEAN_MOTION_DOT":0.00022474,"MEAN_MOTION_DDOT":0}]
